SIRION PATHFINDER-2     
1 43759U 18099B   26169.70132067  .00003653  00000+0  20156-3 0  9998
2 43759  97.4247 218.7229 0007160 298.4838  61.5672 15.14558383412850
CORVUS BC4              
1 43767U 18099K   26169.84225572  .00003093  00000+0  18116-3 0  9997
2 43767  97.4063 212.7743 0008114   8.0155 352.1204 15.12506799412657
M2 PATHFINDER           
1 45727U 20037E   26169.77589095  .00001252  00000+0  93452-4 0  9997
2 45727  97.8146   1.0255 0012578 141.5732 218.6392 15.04680225325735
NETSAT-4                
1 46504U 20068U   26169.74513926  .00014310  00000+0  31684-3 0  9999
2 46504  97.8604 178.1111 0003651 330.9709  29.1334 15.43907051316019
NETSAT-3                
1 46505U 20068V   26169.75260978  .00015426  00000+0  35510-3 0  9998
2 46505  97.8651 176.3334 0003990 355.2199   4.9009 15.42724596315927
NETSAT-1                
1 46506U 20068W   26169.43948322  .00009731  00000+0  29212-3 0  9994
2 46506  97.8747 170.3121 0004889  28.7816 331.3694 15.34667272315495
NETSAT-2                
1 46507U 20068X   26169.45942465  .00018392  00000+0  37804-3 0  9998
2 46507  97.8610 177.7012 0003288  23.2689 336.8708 15.46044422315939
GREENCUBE (IO-117)      
1 53109U 22080E   26169.42938941 -.00000003  00000+0  00000+0 0  9996
2 53109  70.1442 297.8130 0008904 289.4279  70.5418  6.42583246 92141
SITRO-AIS 5 (KATYS)     
1 57176U 23091L   26169.83643854  .00009122  00000+0  32101-3 0  9999
2 57176  97.5056 233.7518 0012745  98.4719 261.7966 15.29487426164596
SITRO-AIS 6 (CHIRKIN)   
1 57192U 23091AC  26169.81919260  .00007312  00000+0  28692-3 0  9991
2 57192  97.5062 232.8447 0013103 101.4938 258.7773 15.25959260164531
SITRO-AIS 8 (ANOKHIN)   
1 57193U 23091AD  26169.85057955  .00011085  00000+0  35856-3 0  9992
2 57193  97.5052 235.3612 0011756  94.9553 265.3030 15.32173419164705
SITRO-AIS 7 (FARTUSHNIY)
1 57194U 23091AE  26169.82267491  .00007131  00000+0  28252-3 0  9997
2 57194  97.5060 232.6724 0012964 102.3874 257.8815 15.25647155164523
SITRO-AIS 10 (BURDAEV)  
1 57199U 23091AK  26169.74505493  .00015957  00000+0  41932-3 0  9995
2 57199  97.5078 240.3245 0007405  75.6246 284.5820 15.38661418165009
SITRO-AIS 9 (SHCHUKIN)  
1 57201U 23091AM  26169.83700741  .00014707  00000+0  39289-3 0  9996
2 57201  97.5076 240.1475 0007655  75.5691 284.6402 15.38169565165007
SITRO-AIS 12 (SMIRENNIY)
1 57204U 23091AQ  26169.82731477  .00014925  00000+0  39495-3 0  9999
2 57204  97.5089 240.6058 0007175  70.6160 289.5860 15.38462458165021
SITRO-AIS 11 (SHEFFER)  
1 57208U 23091AU  26169.84027683  .00014925  00000+0  38953-3 0  9990
2 57208  97.5086 240.8667 0007084  70.4489 289.7521 15.38888264165046
SITRO-AIS 25            
1 59066U 24039R   26169.85014056  .00002155  00000+0  17008-3 0  9998
2 59066  95.3913 236.2353 0143294 322.9024  36.2362 14.93520484124972
SITRO-AIS 26            
1 59067U 24039S   26169.85174014  .00002106  00000+0  16699-3 0  9991
2 59067  95.3910 236.1337 0143649 323.4867  35.6628 14.93316228124962
SITRO-AIS 27            
1 59068U 24039T   26169.82151567  .00001675  00000+0  13232-3 0  9997
2 59068  95.3911 236.3856 0142636 322.2016  36.9257 14.93737159124984
SITRO-AIS 28            
1 59071U 24039U   26169.86591277  .00002261  00000+0  17746-3 0  9997
2 59071  95.3912 236.4633 0142561 321.8684  37.2519 14.93770654124999
GRBBETA                 
1 60237U 24128C   26169.41466747  .00002322  00000+0  16766-3 0  9995
2 60237  61.9881 211.9597 0040487 134.9163 225.5227 15.06645417106457
OOV-CUBE (TUBSAT-30)    
1 60240U 24128F   26169.58586730  .00001416  00000+0  11902-3 0  9992
2 60240  61.9932 220.6959 0044464 134.0792 226.3973 15.02778203106324
ROBUSTA-3A (MEDITERRAN*)
1 60243U 24128J   26169.78852314  .00004083  00000+0  24711-3 0  9996
2 60243  61.9845 202.5810 0041220 128.2234 232.2584 15.11688886106666
LASARSAT                
1 62391U 24247Q   26167.97623210  .00026221  00000+0  52389-3 0  9994
2 62391  44.9742 263.4006 0008180 330.0323  30.0098 15.46364825 83280
CROCUBE                 
1 62394U 24247T   26168.68403664  .00028750  00000+0  53655-3 0  9991
2 62394  44.9716 256.7472 0007967 338.3414  21.7139 15.48292245 83427
FORESAIL-1 PRIME        
1 66778U 25276DS  26169.51197862  .00003659  00000+0  17953-3 0  9999
2 66778  97.4198 242.7588 0003953 100.5303 259.6377 15.18712200 30607
KNACKSAT-2              
1 67683U 98067XZ  26168.60673955  .00040994  00000+0  49993-3 0  9996
2 67683  51.6314 292.3670 0009088 217.1010 142.9356 15.60014370 20344
