OBJECT_NAME,OBJECT_ID,EPOCH,MEAN_MOTION,ECCENTRICITY,INCLINATION,RA_OF_ASC_NODE,ARG_OF_PERICENTER,MEAN_ANOMALY,EPHEMERIS_TYPE,CLASSIFICATION_TYPE,NORAD_CAT_ID,ELEMENT_SET_NO,REV_AT_EPOCH,BSTAR,MEAN_MOTION_DOT,MEAN_MOTION_DDOT
SIRION PATHFINDER-2,2018-099B,2026-06-18T16:49:54.105888,15.14558383,.000716,97.4247,218.7229,298.4838,61.5672,0,U,43759,999,41285,.20156E-3,.3653E-4,0
CORVUS BC4,2018-099K,2026-06-18T20:12:50.894208,15.12506799,.0008114,97.4063,212.7743,8.0155,352.1204,0,U,43767,999,41265,.18116E-3,.3093E-4,0
M2 PATHFINDER,2020-037E,2026-06-18T18:37:16.978080,15.04680225,.0012578,97.8146,1.0255,141.5732,218.6392,0,U,45727,999,32573,.93452E-4,.1252E-4,0
NETSAT-4,2020-068U,2026-06-18T17:53:00.032064,15.43907051,.0003651,97.8604,178.1111,330.9709,29.1334,0,U,46504,999,31601,.31684E-3,.1431E-3,0
NETSAT-3,2020-068V,2026-06-18T18:03:45.484992,15.42724596,.000399,97.8651,176.3334,355.2199,4.9009,0,U,46505,999,31592,.3551E-3,.15426E-3,0
NETSAT-1,2020-068W,2026-06-18T10:32:51.350208,15.34667272,.0004889,97.8747,170.3121,28.7816,331.3694,0,U,46506,999,31549,.29212E-3,.9731E-4,0
NETSAT-2,2020-068X,2026-06-18T11:01:34.289760,15.46044422,.0003288,97.8610,177.7012,23.2689,336.8708,0,U,46507,999,31593,.37804E-3,.18392E-3,0
GREENCUBE (IO-117),2022-080E,2026-06-18T10:18:19.245024,6.42583246,.0008904,70.1442,297.8130,289.4279,70.5418,0,U,53109,999,9214,0,-.3E-7,0
SITRO-AIS 5 (KATYS),2023-091L,2026-06-18T20:04:28.289856,15.29487426,.0012745,97.5056,233.7518,98.4719,261.7966,0,U,57176,999,16459,.32101E-3,.9122E-4,0
SITRO-AIS 6 (CHIRKIN),2023-091AC,2026-06-18T19:39:38.240640,15.25959260,.0013103,97.5062,232.8447,101.4938,258.7773,0,U,57192,999,16453,.28692E-3,.7312E-4,0
SITRO-AIS 8 (ANOKHIN),2023-091AD,2026-06-18T20:24:50.073120,15.32173419,.0011756,97.5052,235.3612,94.9553,265.3030,0,U,57193,999,16470,.35856E-3,.11085E-3,0
SITRO-AIS 7 (FARTUSHNIY),2023-091AE,2026-06-18T19:44:39.112224,15.25647155,.0012964,97.5060,232.6724,102.3874,257.8815,0,U,57194,999,16452,.28252E-3,.7131E-4,0
SITRO-AIS 10 (BURDAEV),2023-091AK,2026-06-18T17:52:52.745952,15.38661418,.0007405,97.5078,240.3245,75.6246,284.5820,0,U,57199,999,16500,.41932E-3,.15957E-3,0
SITRO-AIS 9 (SHCHUKIN),2023-091AM,2026-06-18T20:05:17.440224,15.38169565,.0007655,97.5076,240.1475,75.5691,284.6402,0,U,57201,999,16500,.39289E-3,.14707E-3,0
SITRO-AIS 12 (SMIRENNIY),2023-091AQ,2026-06-18T19:51:19.996128,15.38462458,.0007175,97.5089,240.6058,70.6160,289.5860,0,U,57204,999,16502,.39495E-3,.14925E-3,0
SITRO-AIS 11 (SHEFFER),2023-091AU,2026-06-18T20:09:59.918112,15.38888264,.0007084,97.5086,240.8667,70.4489,289.7521,0,U,57208,999,16504,.38953E-3,.14925E-3,0
SITRO-AIS 25,2024-039R,2026-06-18T20:24:12.144384,14.93520484,.0143294,95.3913,236.2353,322.9024,36.2362,0,U,59066,999,12497,.17008E-3,.2155E-4,0
SITRO-AIS 26,2024-039S,2026-06-18T20:26:30.348096,14.93316228,.0143649,95.3910,236.1337,323.4867,35.6628,0,U,59067,999,12496,.16699E-3,.2106E-4,0
SITRO-AIS 27,2024-039T,2026-06-18T19:42:58.953888,14.93737159,.0142636,95.3911,236.3856,322.2016,36.9257,0,U,59068,999,12498,.13232E-3,.1675E-4,0
SITRO-AIS 28,2024-039U,2026-06-18T20:46:54.863328,14.93770654,.0142561,95.3912,236.4633,321.8684,37.2519,0,U,59071,999,12499,.17746E-3,.2261E-4,0
GRBBETA,2024-128C,2026-06-18T09:57:07.269408,15.06645417,.0040487,61.9881,211.9597,134.9163,225.5227,0,U,60237,999,10645,.16766E-3,.2322E-4,0
OOV-CUBE (TUBSAT-30),2024-128F,2026-06-18T14:03:38.934720,15.02778203,.0044464,61.9932,220.6959,134.0792,226.3973,0,U,60240,999,10632,.11902E-3,.1416E-4,0
ROBUSTA-3A (MEDITERRANEE),2024-128J,2026-06-18T18:55:28.399296,15.11688886,.004122,61.9845,202.5810,128.2234,232.2584,0,U,60243,999,10666,.24711E-3,.4083E-4,0
LASARSAT,2024-247Q,2026-06-16T23:25:46.453440,15.46364825,.000818,44.9742,263.4006,330.0323,30.0098,0,U,62391,999,8328,.52389176E-3,.26221E-3,0
CROCUBE,2024-247T,2026-06-17T16:25:00.765696,15.48292245,.00079679,44.9716,256.7472,338.3414,21.7139,0,U,62394,999,8342,.53654775E-3,.2875E-3,0
FORESAIL-1 PRIME,2025-276DS,2026-06-18T12:17:14.952768,15.18712200,.0003953,97.4198,242.7588,100.5303,259.6377,0,U,66778,999,3060,.17953E-3,.3659E-4,0
KNACKSAT-2,1998-067XZ,2026-06-17T14:33:42.297120,15.60014370,.0009088,51.6314,292.3670,217.1010,142.9356,0,U,67683,999,2034,.49993E-3,.40994E-3,0
